start=new Date('2021-11-30T00:00:00.000Z').valueOf();
sats=[{"OBJECT_NAME":"STARLINK-1984","BSTAR":"0.00007958700000","LAUNCH_DATE":"2021-02-04","ECCENTRICITY":"0.00021210","CLASSIFICATION_TYPE":"U","MEAN_MOTION_DOT":"0.00000904","MEAN_MOTION":"15.06398560","MEAN_ELEMENT_THEORY":"SGP4","MEAN_ANOMALY":"276.5036","RCS_SIZE":"LARGE","EPHEMERIS_TYPE":"0","INCLINATION":"53.0550","PERIAPSIS":"545.749","FILE":"3227094","APOAPSIS":"548.687","TLE_LINE1":"1 47581U 21009AK  21333.89073304  .00000904  00000-0  79587-4 0  9996","REF_FRAME":"TEME","OBJECT_TYPE":"PAYLOAD","CENTER_NAME":"EARTH","TIME_SYSTEM":"UTC","OBJECT_ID":"2021-009AK","MEAN_MOTION_DDOT":"0.0000000000000","RA_OF_ASC_NODE":"168.3126","COUNTRY_CODE":"US","SITE":"AFETR","EPOCH":"2021-11-29T21:22:39.334656","ARG_OF_PERICENTER":"83.6195","DECAY_DATE":null,"TLE_LINE2":"2 47581  53.0550 168.3126 0002121  83.6195 276.5036 15.06398560 45821","GP_ID":"190750215","ELEMENT_SET_NO":"999","PERIOD":"95.592","SEMIMAJOR_AXIS":"6925.353","NORAD_CAT_ID":"47581","REV_AT_EPOCH":"4582"},{"APOAPSIS":"548.671","TLE_LINE1":"1 47582U 21009AL  21333.87782400  .00002692  00000-0  19953-3 0  9995","FILE":"3227026","CENTER_NAME":"EARTH","OBJECT_TYPE":"PAYLOAD","REF_FRAME":"TEME","OBJECT_ID":"2021-009AL","TIME_SYSTEM":"UTC","CLASSIFICATION_TYPE":"U","MEAN_MOTION_DOT":"0.00002692","LAUNCH_DATE":"2021-02-04","ECCENTRICITY":"0.00021620","BSTAR":"0.00019953000000","OBJECT_NAME":"STARLINK-1986","MEAN_MOTION":"15.06412883","PERIAPSIS":"545.677","RCS_SIZE":"LARGE","INCLINATION":"53.0548","EPHEMERIS_TYPE":"0","MEAN_ANOMALY":"282.4683","MEAN_ELEMENT_THEORY":"SGP4","TLE_LINE2":"2 47582  53.0548 188.3843 0002162  77.6548 282.4683 15.06412883 46142","DECAY_DATE":null,"PERIOD":"95.591","ELEMENT_SET_NO":"999","GP_ID":"190726761","REV_AT_EPOCH":"4614","NORAD_CAT_ID":"47582","SEMIMAJOR_AXIS":"6925.309","MEAN_MOTION_DDOT":"0.0000000000000","SITE":"AFETR","COUNTRY_CODE":"US","RA_OF_ASC_NODE":"188.3843","ARG_OF_PERICENTER":"77.6548","EPOCH":"2021-11-29T21:04:03.993600"},{"CENTER_NAME":"EARTH","REF_FRAME":"TEME","OBJECT_TYPE":"PAYLOAD","TIME_SYSTEM":"UTC","OBJECT_ID":"2021-009AM","APOAPSIS":"548.607","TLE_LINE1":"1 47583U 21009AM  21333.65667840  .00001517  00000-0  12072-3 0  9992","FILE":"3227094","MEAN_MOTION":"15.06394736","PERIAPSIS":"545.852","MEAN_ELEMENT_THEORY":"SGP4","MEAN_ANOMALY":"283.0919","INCLINATION":"53.0530","RCS_SIZE":"LARGE","EPHEMERIS_TYPE":"0","LAUNCH_DATE":"2021-02-04","BSTAR":"0.00012072000000","ECCENTRICITY":"0.00019890","CLASSIFICATION_TYPE":"U","MEAN_MOTION_DOT":"0.00001517","OBJECT_NAME":"STARLINK-1987","GP_ID":"190749713","ELEMENT_SET_NO":"999","PERIOD":"95.592","NORAD_CAT_ID":"47583","REV_AT_EPOCH":"4551","SEMIMAJOR_AXIS":"6925.365","TLE_LINE2":"2 47583  53.0530 189.3714 0001989  77.0292 283.0919 15.06394736 45513","DECAY_DATE":null,"ARG_OF_PERICENTER":"77.0292","EPOCH":"2021-11-29T15:45:37.013760","MEAN_MOTION_DDOT":"0.0000000000000","SITE":"AFETR","COUNTRY_CODE":"US","RA_OF_ASC_NODE":"189.3714"},{"MEAN_MOTION_DDOT":"0.0000000000000","SITE":"AFETR","RA_OF_ASC_NODE":"103.6214","COUNTRY_CODE":"US","ARG_OF_PERICENTER":"3.5708","EPOCH":"2021-11-29T18:18:45.521568","TLE_LINE2":"2 47584  53.0550 103.6214 0004234   3.5708 356.5335 15.62777276 46720","DECAY_DATE":null,"PERIOD":"92.144","ELEMENT_SET_NO":"999","GP_ID":"190749963","REV_AT_EPOCH":"4672","NORAD_CAT_ID":"47584","SEMIMAJOR_AXIS":"6757.776","MEAN_MOTION_DOT":"0.00005462","CLASSIFICATION_TYPE":"U","LAUNCH_DATE":"2021-02-04","ECCENTRICITY":"0.00042340","BSTAR":"0.00006540500000","OBJECT_NAME":"STARLINK-1988","MEAN_MOTION":"15.62777276","PERIAPSIS":"376.780","INCLINATION":"53.0550","RCS_SIZE":"LARGE","EPHEMERIS_TYPE":"0","MEAN_ELEMENT_THEORY":"SGP4","MEAN_ANOMALY":"356.5335","TLE_LINE1":"1 47584U 21009AN  21333.76302687  .00005462  00000-0  65405-4 0  9992","APOAPSIS":"382.502","FILE":"3227094","CENTER_NAME":"EARTH","OBJECT_TYPE":"PAYLOAD","REF_FRAME":"TEME","TIME_SYSTEM":"UTC","OBJECT_ID":"2021-009AN"},{"MEAN_MOTION_DDOT":"0.0000000000000","COUNTRY_CODE":"US","RA_OF_ASC_NODE":"189.5447","SITE":"AFETR","EPOCH":"2021-11-29T14:47:14.596224","ARG_OF_PERICENTER":"84.9958","DECAY_DATE":null,"TLE_LINE2":"2 47585  53.0542 189.5447 0007278  84.9958 275.1862 15.06396767 45500","GP_ID":"190750715","ELEMENT_SET_NO":"999","PERIOD":"95.592","SEMIMAJOR_AXIS":"6925.358","NORAD_CAT_ID":"47585","REV_AT_EPOCH":"4550","OBJECT_NAME":"STARLINK-1989","ECCENTRICITY":"0.00072780","LAUNCH_DATE":"2021-02-04","BSTAR":"-0.00001978700000","CLASSIFICATION_TYPE":"U","MEAN_MOTION_DOT":"-0.00000579","MEAN_MOTION":"15.06396767","MEAN_ANOMALY":"275.1862","MEAN_ELEMENT_THEORY":"SGP4","INCLINATION":"53.0542","RCS_SIZE":"LARGE","EPHEMERIS_TYPE":"0","PERIAPSIS":"542.183","FILE":"3227094","TLE_LINE1":"1 47585U 21009AP  21333.61614116 -.00000579  00000-0 -19787-4 0  9998","APOAPSIS":"552.264","REF_FRAME":"TEME","OBJECT_TYPE":"PAYLOAD","CENTER_NAME":"EARTH","OBJECT_ID":"2021-009AP","TIME_SYSTEM":"UTC"},{"OBJECT_TYPE":"PAYLOAD","REF_FRAME":"TEME","CENTER_NAME":"EARTH","TIME_SYSTEM":"UTC","OBJECT_ID":"2021-009AQ","FILE":"3226898","TLE_LINE1":"1 47586U 21009AQ  21333.40049993  .00001451  00000-0  11630-3 0  9997","APOAPSIS":"548.734","MEAN_MOTION":"15.06403385","RCS_SIZE":"LARGE","EPHEMERIS_TYPE":"0","INCLINATION":"53.0543","MEAN_ANOMALY":"283.9013","MEAN_ELEMENT_THEORY":"SGP4","PERIAPSIS":"545.673","OBJECT_NAME":"STARLINK-1990","CLASSIFICATION_TYPE":"U","MEAN_MOTION_DOT":"0.00001451","BSTAR":"0.00011630000000","LAUNCH_DATE":"2021-02-04","ECCENTRICITY":"0.00022100","PERIOD":"95.592","GP_ID":"190721370","ELEMENT_SET_NO":"999","SEMIMAJOR_AXIS":"6925.338","REV_AT_EPOCH":"4519","NORAD_CAT_ID":"47586","DECAY_DATE":null,"TLE_LINE2":"2 47586  53.0543 210.5118 0002210  76.2222 283.9013 15.06403385 45196","EPOCH":"2021-11-29T09:36:43.193952","ARG_OF_PERICENTER":"76.2222","MEAN_MOTION_DDOT":"0.0000000000000","COUNTRY_CODE":"US","RA_OF_ASC_NODE":"210.5118","SITE":"AFETR"},{"REV_AT_EPOCH":"4555","NORAD_CAT_ID":"47587","SEMIMAJOR_AXIS":"6925.355","PERIOD":"95.592","ELEMENT_SET_NO":"999","GP_ID":"190722621","TLE_LINE2":"2 47587  53.0549 182.3270 0002237  83.9546 276.1698 15.06397985 45552","DECAY_DATE":null,"ARG_OF_PERICENTER":"83.9546","EPOCH":"2021-11-28T23:56:52.476576","SITE":"AFETR","COUNTRY_CODE":"US","RA_OF_ASC_NODE":"182.3270","MEAN_MOTION_DDOT":"0.0000000000000","TIME_SYSTEM":"UTC","OBJECT_ID":"2021-009AR","CENTER_NAME":"EARTH","OBJECT_TYPE":"PAYLOAD","REF_FRAME":"TEME","TLE_LINE1":"1 47587U 21009AR  21332.99782959  .00000996  00000-0  85763-4 0  9999","APOAPSIS":"548.769","FILE":"3226898","PERIAPSIS":"545.671","RCS_SIZE":"LARGE","EPHEMERIS_TYPE":"0","INCLINATION":"53.0549","MEAN_ELEMENT_THEORY":"SGP4","MEAN_ANOMALY":"276.1698","MEAN_MOTION":"15.06397985","CLASSIFICATION_TYPE":"U","MEAN_MOTION_DOT":"0.00000996","LAUNCH_DATE":"2021-02-04","BSTAR":"0.00008576300000","ECCENTRICITY":"0.00022370","OBJECT_NAME":"STARLINK-1991"},{"CENTER_NAME":"EARTH","OBJECT_TYPE":"PAYLOAD","REF_FRAME":"TEME","TIME_SYSTEM":"UTC","OBJECT_ID":"2021-009AS","TLE_LINE1":"1 47588U 21009AS  21333.05585801  .00002122  00000-0  16130-3 0  9999","APOAPSIS":"548.616","FILE":"3226898","MEAN_MOTION":"15.06401625","PERIAPSIS":"545.801","RCS_SIZE":"LARGE","INCLINATION":"53.0520","EPHEMERIS_TYPE":"0","MEAN_ANOMALY":"283.6474","MEAN_ELEMENT_THEORY":"SGP4","MEAN_MOTION_DOT":"0.00002122","CLASSIFICATION_TYPE":"U","LAUNCH_DATE":"2021-02-04","ECCENTRICITY":"0.00020330","BSTAR":"0.00016130000000","OBJECT_NAME":"STARLINK-1993","PERIOD":"95.592","GP_ID":"190722372","ELEMENT_SET_NO":"999","REV_AT_EPOCH":"4542","NORAD_CAT_ID":"47588","SEMIMAJOR_AXIS":"6925.344","TLE_LINE2":"2 47588  53.0520 192.0724 0002033  76.4741 283.6474 15.06401625 45420","DECAY_DATE":null,"ARG_OF_PERICENTER":"76.4741","EPOCH":"2021-11-29T01:20:26.132064","MEAN_MOTION_DDOT":"0.0000000000000","SITE":"AFETR","COUNTRY_CODE":"US","RA_OF_ASC_NODE":"192.0724"},{"REF_FRAME":"TEME","OBJECT_TYPE":"PAYLOAD","CENTER_NAME":"EARTH","OBJECT_ID":"2021-009AT","TIME_SYSTEM":"UTC","FILE":"3226898","APOAPSIS":"548.566","TLE_LINE1":"1 47589U 21009AT  21333.60506651  .00001552  00000-0  12308-3 0  9996","MEAN_MOTION":"15.06408386","MEAN_ELEMENT_THEORY":"SGP4","MEAN_ANOMALY":"276.6658","RCS_SIZE":"LARGE","INCLINATION":"53.0534","EPHEMERIS_TYPE":"0","PERIAPSIS":"545.810","OBJECT_NAME":"STARLINK-1994","LAUNCH_DATE":"2021-02-04","ECCENTRICITY":"0.00019900","BSTAR":"0.00012308000000","CLASSIFICATION_TYPE":"U","MEAN_MOTION_DOT":"0.00001552","ELEMENT_SET_NO":"999","GP_ID":"190721620","PERIOD":"95.592","SEMIMAJOR_AXIS":"6925.323","NORAD_CAT_ID":"47589","REV_AT_EPOCH":"4550","DECAY_DATE":null,"TLE_LINE2":"2 47589  53.0534 189.5997 0001990  83.4557 276.6658 15.06408386 45509","EPOCH":"2021-11-29T14:31:17.746464","ARG_OF_PERICENTER":"83.4557","MEAN_MOTION_DDOT":"0.0000000000000","COUNTRY_CODE":"US","RA_OF_ASC_NODE":"189.5997","SITE":"AFETR"},{"LAUNCH_DATE":"2021-02-04","ECCENTRICITY":"0.00020810","BSTAR":"-0.00000402830000","MEAN_MOTION_DOT":"-0.00000342","CLASSIFICATION_TYPE":"U","OBJECT_NAME":"STARLINK-1995","MEAN_MOTION":"15.06394871","PERIAPSIS":"545.788","MEAN_ANOMALY":"290.5322","MEAN_ELEMENT_THEORY":"SGP4","RCS_SIZE":"LARGE","INCLINATION":"53.0549","EPHEMERIS_TYPE":"0","TLE_LINE1":"1 47590U 21009AU  21333.06508125 -.00000342  00000-0 -40283-5 0  9999","APOAPSIS":"548.670","FILE":"3226898","CENTER_NAME":"EARTH","REF_FRAME":"TEME","OBJECT_TYPE":"PAYLOAD","OBJECT_ID":"2021-009AU","TIME_SYSTEM":"UTC","MEAN_MOTION_DDOT":"0.0000000000000","SITE":"AFETR","COUNTRY_CODE":"US","RA_OF_ASC_NODE":"212.0209","ARG_OF_PERICENTER":"69.5891","EPOCH":"2021-11-29T01:33:43.020000","TLE_LINE2":"2 47590  53.0549 212.0209 0002081  69.5891 290.5322 15.06394871 45149","DECAY_DATE":null,"ELEMENT_SET_NO":"999","GP_ID":"190721870","PERIOD":"95.592","NORAD_CAT_ID":"47590","REV_AT_EPOCH":"4514","SEMIMAJOR_AXIS":"6925.364"}];
